start=new Date('2021-08-30T00:00:00.000Z').valueOf();
sats=[{"CLASSIFICATION_TYPE":"U","CENTER_NAME":"EARTH","OBJECT_TYPE":"PAYLOAD","ECCENTRICITY":"0.00012040","LAUNCH_DATE":"2021-04-29","SEMIMAJOR_AXIS":"6925.396","MEAN_ELEMENT_THEORY":"SGP4","REV_AT_EPOCH":"363","PERIAPSIS":"546.427","NORAD_CAT_ID":"48299","TIME_SYSTEM":"UTC","REF_FRAME":"TEME","OBJECT_NAME":"STARLINK-2557","TLE_LINE2":"2 48299  53.0543 301.1845 0001204  78.4686 348.1302 15.06384610  3639","GP_ID":"183701187","EPOCH":"2021-08-29T22:00:00.999936","TLE_LINE1":"1 48299U 21036Z   21241.91667824 -.00003599  00000-0 -22297-3 0  9990","MEAN_MOTION_DOT":"-0.00003599","MEAN_ANOMALY":"348.1302","EPHEMERIS_TYPE":"0","PERIOD":"95.593","COUNTRY_CODE":"US","MEAN_MOTION":"15.06384610","SITE":"AFETR","OBJECT_ID":"2021-036Z","RA_OF_ASC_NODE":"301.1845","ELEMENT_SET_NO":"999","INCLINATION":"53.0543","APOAPSIS":"548.095","RCS_SIZE":"LARGE","ARG_OF_PERICENTER":"78.4686","FILE":"3105271","DECAY_DATE":null,"BSTAR":"-0.00022297000000","MEAN_MOTION_DDOT":"0.0000000000000"},{"CENTER_NAME":"EARTH","CLASSIFICATION_TYPE":"U","OBJECT_TYPE":"PAYLOAD","ECCENTRICITY":"0.00007080","SEMIMAJOR_AXIS":"6925.345","LAUNCH_DATE":"2021-04-29","MEAN_ELEMENT_THEORY":"SGP4","REV_AT_EPOCH":"1906","NORAD_CAT_ID":"48300","TIME_SYSTEM":"UTC","PERIAPSIS":"546.720","REF_FRAME":"TEME","OBJECT_NAME":"STARLINK-2538","TLE_LINE2":"2 48300  53.0655 311.2595 0000708 148.2035 211.8997 15.06401135 19064","EPOCH":"2021-08-29T21:30:25.961184","GP_ID":"183700937","TLE_LINE1":"1 48300U 21036AA  21241.89613381 -.00001003  00000-0 -48444-4 0  9990","MEAN_ANOMALY":"211.8997","MEAN_MOTION_DOT":"-0.00001003","EPHEMERIS_TYPE":"0","PERIOD":"95.592","COUNTRY_CODE":"US","MEAN_MOTION":"15.06401135","SITE":"AFETR","RA_OF_ASC_NODE":"311.2595","OBJECT_ID":"2021-036AA","ELEMENT_SET_NO":"999","INCLINATION":"53.0655","RCS_SIZE":"LARGE","APOAPSIS":"547.700","ARG_OF_PERICENTER":"148.2035","FILE":"3105271","BSTAR":"-0.00004844400000","DECAY_DATE":null,"MEAN_MOTION_DDOT":"0.0000000000000"},{"CENTER_NAME":"EARTH","CLASSIFICATION_TYPE":"U","OBJECT_TYPE":"PAYLOAD","ECCENTRICITY":"0.00007240","SEMIMAJOR_AXIS":"6925.312","LAUNCH_DATE":"2021-04-29","REV_AT_EPOCH":"1905","MEAN_ELEMENT_THEORY":"SGP4","NORAD_CAT_ID":"48301","TIME_SYSTEM":"UTC","PERIAPSIS":"546.675","REF_FRAME":"TEME","OBJECT_NAME":"STARLINK-2537","EPOCH":"2021-08-29T21:25:06.371040","TLE_LINE2":"2 48301  53.0491 311.3236 0000724 141.1338 218.9703 15.06412073 19057","GP_ID":"183699685","TLE_LINE1":"1 48301U 21036AB  21241.89243485  .00000816  00000-0  73598-4 0  9992","MEAN_ANOMALY":"218.9703","MEAN_MOTION_DOT":"0.00000816","EPHEMERIS_TYPE":"0","PERIOD":"95.591","MEAN_MOTION":"15.06412073","COUNTRY_CODE":"US","SITE":"AFETR","OBJECT_ID":"2021-036AB","RA_OF_ASC_NODE":"311.3236","ELEMENT_SET_NO":"999","INCLINATION":"53.0491","RCS_SIZE":"LARGE","APOAPSIS":"547.678","ARG_OF_PERICENTER":"141.1338","FILE":"3105271","BSTAR":"0.00007359800000","DECAY_DATE":null,"MEAN_MOTION_DDOT":"0.0000000000000"},{"TLE_LINE1":"1 48302U 21036AC  21241.88875265  .00000832  00000-0  74700-4 0  9993","MEAN_ANOMALY":"237.6591","MEAN_MOTION_DOT":"0.00000832","EPHEMERIS_TYPE":"0","OBJECT_NAME":"STARLINK-2556","GP_ID":"183700436","TLE_LINE2":"2 48302  53.0525 311.3238 0000801 122.4476 237.6591 15.06403856 19051","EPOCH":"2021-08-29T21:19:48.228960","LAUNCH_DATE":"2021-04-29","SEMIMAJOR_AXIS":"6925.337","MEAN_ELEMENT_THEORY":"SGP4","REV_AT_EPOCH":"1905","PERIAPSIS":"546.647","NORAD_CAT_ID":"48302","TIME_SYSTEM":"UTC","REF_FRAME":"TEME","CLASSIFICATION_TYPE":"U","CENTER_NAME":"EARTH","OBJECT_TYPE":"PAYLOAD","ECCENTRICITY":"0.00008010","FILE":"3105271","DECAY_DATE":null,"BSTAR":"0.00007470000000","MEAN_MOTION_DDOT":"0.0000000000000","INCLINATION":"53.0525","APOAPSIS":"547.756","RCS_SIZE":"LARGE","ARG_OF_PERICENTER":"122.4476","RA_OF_ASC_NODE":"311.3238","OBJECT_ID":"2021-036AC","ELEMENT_SET_NO":"999","PERIOD":"95.592","COUNTRY_CODE":"US","MEAN_MOTION":"15.06403856","SITE":"AFETR"},{"PERIOD":"95.592","COUNTRY_CODE":"US","MEAN_MOTION":"15.06400006","SITE":"AFETR","RA_OF_ASC_NODE":"311.3408","OBJECT_ID":"2021-036AD","ELEMENT_SET_NO":"999","INCLINATION":"53.0547","APOAPSIS":"547.706","RCS_SIZE":"LARGE","ARG_OF_PERICENTER":"155.2863","FILE":"3105271","BSTAR":"-0.00001132900000","DECAY_DATE":null,"MEAN_MOTION_DDOT":"0.0000000000000","CENTER_NAME":"EARTH","CLASSIFICATION_TYPE":"U","OBJECT_TYPE":"PAYLOAD","ECCENTRICITY":"0.00007110","SEMIMAJOR_AXIS":"6925.349","LAUNCH_DATE":"2021-04-29","REV_AT_EPOCH":"1905","MEAN_ELEMENT_THEORY":"SGP4","NORAD_CAT_ID":"48303","TIME_SYSTEM":"UTC","PERIAPSIS":"546.721","REF_FRAME":"TEME","OBJECT_NAME":"STARLINK-2530","GP_ID":"183700687","TLE_LINE2":"2 48303  53.0547 311.3408 0000711 155.2863 204.8160 15.06400006 19051","EPOCH":"2021-08-29T21:14:30.002208","TLE_LINE1":"1 48303U 21036AD  21241.88506947 -.00000450  00000-0 -11329-4 0  9998","MEAN_ANOMALY":"204.8160","MEAN_MOTION_DOT":"-0.00000450","EPHEMERIS_TYPE":"0"},{"TLE_LINE1":"1 48304U 21036AE  21241.54964590 -.00000198  00000-0  56098-5 0  9995","MEAN_ANOMALY":"215.9792","MEAN_MOTION_DOT":"-0.00000198","EPHEMERIS_TYPE":"0","OBJECT_NAME":"STARLINK-2524","TLE_LINE2":"2 48304  53.0559 312.8457 0000575 144.1236 215.9792 15.06403818 19007","GP_ID":"183701438","EPOCH":"2021-08-29T13:11:29.405760","LAUNCH_DATE":"2021-04-29","SEMIMAJOR_AXIS":"6925.337","REV_AT_EPOCH":"1900","MEAN_ELEMENT_THEORY":"SGP4","PERIAPSIS":"546.804","NORAD_CAT_ID":"48304","TIME_SYSTEM":"UTC","REF_FRAME":"TEME","CLASSIFICATION_TYPE":"U","CENTER_NAME":"EARTH","OBJECT_TYPE":"PAYLOAD","ECCENTRICITY":"0.00005750","FILE":"3105271","DECAY_DATE":null,"BSTAR":"0.00000560980000","MEAN_MOTION_DDOT":"0.0000000000000","INCLINATION":"53.0559","RCS_SIZE":"LARGE","APOAPSIS":"547.600","ARG_OF_PERICENTER":"144.1236","OBJECT_ID":"2021-036AE","RA_OF_ASC_NODE":"312.8457","ELEMENT_SET_NO":"999","PERIOD":"95.592","COUNTRY_CODE":"US","MEAN_MOTION":"15.06403818","SITE":"AFETR"},{"EPHEMERIS_TYPE":"0","MEAN_ANOMALY":"236.6369","MEAN_MOTION_DOT":"0.00002117","TLE_LINE1":"1 48305U 21036AF  21241.67864908  .00002117  00000-0  16092-3 0  9992","EPOCH":"2021-08-29T16:17:15.280512","TLE_LINE2":"2 48305  53.0547 312.2624 0000425 123.4660 236.6369 15.06410313 19020","GP_ID":"183700186","OBJECT_NAME":"STARLINK-2519","REF_FRAME":"TEME","PERIAPSIS":"546.888","NORAD_CAT_ID":"48305","TIME_SYSTEM":"UTC","MEAN_ELEMENT_THEORY":"SGP4","REV_AT_EPOCH":"1902","LAUNCH_DATE":"2021-04-29","SEMIMAJOR_AXIS":"6925.317","ECCENTRICITY":"0.00004250","OBJECT_TYPE":"PAYLOAD","CLASSIFICATION_TYPE":"U","CENTER_NAME":"EARTH","MEAN_MOTION_DDOT":"0.0000000000000","DECAY_DATE":null,"BSTAR":"0.00016092000000","FILE":"3105271","ARG_OF_PERICENTER":"123.4660","APOAPSIS":"547.476","RCS_SIZE":"LARGE","INCLINATION":"53.0547","ELEMENT_SET_NO":"999","OBJECT_ID":"2021-036AF","RA_OF_ASC_NODE":"312.2624","SITE":"AFETR","MEAN_MOTION":"15.06410313","COUNTRY_CODE":"US","PERIOD":"95.591"},{"ECCENTRICITY":"0.00006210","CENTER_NAME":"EARTH","CLASSIFICATION_TYPE":"U","OBJECT_TYPE":"PAYLOAD","NORAD_CAT_ID":"48306","TIME_SYSTEM":"UTC","PERIAPSIS":"546.782","REF_FRAME":"TEME","SEMIMAJOR_AXIS":"6925.347","LAUNCH_DATE":"2021-04-29","REV_AT_EPOCH":"1902","MEAN_ELEMENT_THEORY":"SGP4","GP_ID":"183699936","TLE_LINE2":"2 48306  53.0565 312.2831 0000621 129.5416 230.5628 15.06400556 19024","EPOCH":"2021-08-29T16:11:57.192864","OBJECT_NAME":"STARLINK-2523","MEAN_ANOMALY":"230.5628","MEAN_MOTION_DOT":"-0.00000226","EPHEMERIS_TYPE":"0","TLE_LINE1":"1 48306U 21036AG  21241.67496751 -.00000226  00000-0  36866-5 0  9993","SITE":"AFETR","PERIOD":"95.592","MEAN_MOTION":"15.06400556","COUNTRY_CODE":"US","RA_OF_ASC_NODE":"312.2831","OBJECT_ID":"2021-036AG","ELEMENT_SET_NO":"999","ARG_OF_PERICENTER":"129.5416","INCLINATION":"53.0565","APOAPSIS":"547.642","RCS_SIZE":"LARGE","MEAN_MOTION_DDOT":"0.0000000000000","FILE":"3105271","BSTAR":"0.00000368660000","DECAY_DATE":null},{"NORAD_CAT_ID":"48307","TIME_SYSTEM":"UTC","PERIAPSIS":"546.836","REF_FRAME":"TEME","SEMIMAJOR_AXIS":"6925.325","LAUNCH_DATE":"2021-04-29","REV_AT_EPOCH":"1899","MEAN_ELEMENT_THEORY":"SGP4","ECCENTRICITY":"0.00005100","CENTER_NAME":"EARTH","CLASSIFICATION_TYPE":"U","OBJECT_TYPE":"PAYLOAD","MEAN_ANOMALY":"185.0956","MEAN_MOTION_DOT":"0.00002061","EPHEMERIS_TYPE":"0","TLE_LINE1":"1 48307U 21036AH  21241.47224032  .00002061  00000-0  15716-3 0  9990","TLE_LINE2":"2 48307  53.0550 313.1892 0000510 175.0038 185.0956 15.06407824 18997","EPOCH":"2021-08-29T11:20:01.563648","GP_ID":"183673050","OBJECT_NAME":"STARLINK-2528","RA_OF_ASC_NODE":"313.1892","OBJECT_ID":"2021-036AH","ELEMENT_SET_NO":"999","SITE":"AFETR","PERIOD":"95.592","MEAN_MOTION":"15.06407824","COUNTRY_CODE":"US","MEAN_MOTION_DDOT":"0.0000000000000","FILE":"3105060","BSTAR":"0.00015716000000","DECAY_DATE":null,"ARG_OF_PERICENTER":"175.0038","INCLINATION":"53.0550","RCS_SIZE":"LARGE","APOAPSIS":"547.543"},{"DECAY_DATE":null,"BSTAR":"0.00004437800000","FILE":"3105271","MEAN_MOTION_DDOT":"0.0000000000000","RCS_SIZE":"LARGE","APOAPSIS":"547.612","INCLINATION":"53.0562","ARG_OF_PERICENTER":"159.7909","ELEMENT_SET_NO":"999","RA_OF_ASC_NODE":"312.3150","OBJECT_ID":"2021-036AJ","COUNTRY_CODE":"US","MEAN_MOTION":"15.06394551","PERIOD":"95.592","SITE":"AFETR","TLE_LINE1":"1 48308U 21036AJ  21241.66759722  .00000380  00000-0  44378-4 0  9990","EPHEMERIS_TYPE":"0","MEAN_MOTION_DOT":"0.00000380","MEAN_ANOMALY":"200.3102","OBJECT_NAME":"STARLINK-2532","TLE_LINE2":"2 48308  53.0562 312.3150 0000551 159.7909 200.3102 15.06394551 19021","GP_ID":"183700938","EPOCH":"2021-08-29T16:01:20.399808","MEAN_ELEMENT_THEORY":"SGP4","REV_AT_EPOCH":"1902","LAUNCH_DATE":"2021-04-29","SEMIMAJOR_AXIS":"6925.365","REF_FRAME":"TEME","PERIAPSIS":"546.849","NORAD_CAT_ID":"48308","TIME_SYSTEM":"UTC","OBJECT_TYPE":"PAYLOAD","CLASSIFICATION_TYPE":"U","CENTER_NAME":"EARTH","ECCENTRICITY":"0.00005510"}];
